CCSDS_OMM_VERS = 2.0
CREATION_DATE  = 
ORIGINATOR     = 

OBJECT_NAME    = SL-8 R/B
OBJECT_ID      = 1985-006B
CENTER_NAME    = EARTH
REF_FRAME      = TEME
TIME_SYSTEM    = UTC
MEAN_ELEMENT_THEORY = SGP/SGP4

EPOCH          = 2025-12-22T13:58:00.497280
MEAN_MOTION    = 14.37726775
ECCENTRICITY   = .00191122
INCLINATION    = 74.0461
RA_OF_ASC_NODE = 43.0269
ARG_OF_PERICENTER = 333.1770
MEAN_ANOMALY   = 188.7139

EPHEMERIS_TYPE = 0
CLASSIFICATION_TYPE = U
NORAD_CAT_ID   = 15483
ELEMENT_SET_NO = 999
REV_AT_EPOCH   = 14294
BSTAR          = .91172E-4
MEAN_MOTION_DOT = .248E-5
MEAN_MOTION_DDOT = 0

CCSDS_OMM_VERS = 2.0
CREATION_DATE  = 
ORIGINATOR     = 

OBJECT_NAME    = SL-12 R/B(2)
OBJECT_ID      = 1985-042D
CENTER_NAME    = EARTH
REF_FRAME      = TEME
TIME_SYSTEM    = UTC
MEAN_ELEMENT_THEORY = SGP/SGP4

EPOCH          = 2025-12-22T21:04:30.700704
MEAN_MOTION    = 14.21954854
ECCENTRICITY   = .0037357
INCLINATION    = 71.1073
RA_OF_ASC_NODE = 250.0020
ARG_OF_PERICENTER = 246.5821
MEAN_ANOMALY   = 185.8862

EPHEMERIS_TYPE = 0
CLASSIFICATION_TYPE = U
NORAD_CAT_ID   = 15772
ELEMENT_SET_NO = 999
REV_AT_EPOCH   = 10347
BSTAR          = .42441E-4
MEAN_MOTION_DOT = .46E-6
MEAN_MOTION_DDOT = 0

CCSDS_OMM_VERS = 2.0
CREATION_DATE  = 
ORIGINATOR     = 

OBJECT_NAME    = SL-14 R/B
OBJECT_ID      = 1985-069B
CENTER_NAME    = EARTH
REF_FRAME      = TEME
TIME_SYSTEM    = UTC
MEAN_ELEMENT_THEORY = SGP/SGP4

EPOCH          = 2025-12-22T19:11:34.386720
MEAN_MOTION    = 14.86335324
ECCENTRICITY   = .0020339
INCLINATION    = 82.5273
RA_OF_ASC_NODE = 97.2460
ARG_OF_PERICENTER = 87.5919
MEAN_ANOMALY   = 272.7626

EPHEMERIS_TYPE = 0
CLASSIFICATION_TYPE = U
NORAD_CAT_ID   = 15945
ELEMENT_SET_NO = 999
REV_AT_EPOCH   = 16141
BSTAR          = .51985E-4
MEAN_MOTION_DOT = .484E-5
MEAN_MOTION_DDOT = 0

CCSDS_OMM_VERS = 2.0
CREATION_DATE  = 
ORIGINATOR     = 

OBJECT_NAME    = SL-16 R/B
OBJECT_ID      = 1985-097B
CENTER_NAME    = EARTH
REF_FRAME      = TEME
TIME_SYSTEM    = UTC
MEAN_ELEMENT_THEORY = SGP/SGP4

EPOCH          = 2025-12-22T04:15:52.867872
MEAN_MOTION    = 14.16587872
ECCENTRICITY   = .00073261
INCLINATION    = 71.0038
RA_OF_ASC_NODE = 303.7333
ARG_OF_PERICENTER = 355.7060
MEAN_ANOMALY   = 99.1411

EPHEMERIS_TYPE = 0
CLASSIFICATION_TYPE = U
NORAD_CAT_ID   = 16182
ELEMENT_SET_NO = 999
REV_AT_EPOCH   = 7625
BSTAR          = -.16142649E-4
MEAN_MOTION_DOT = -.8E-6
MEAN_MOTION_DDOT = 0

CCSDS_OMM_VERS = 2.0
CREATION_DATE  = 
ORIGINATOR     = 

OBJECT_NAME    = SL-14 R/B
OBJECT_ID      = 1986-006B
CENTER_NAME    = EARTH
REF_FRAME      = TEME
TIME_SYSTEM    = UTC
MEAN_ELEMENT_THEORY = SGP/SGP4

EPOCH          = 2025-12-22T09:24:33.362784
MEAN_MOTION    = 14.86683269
ECCENTRICITY   = .00770046
INCLINATION    = 82.5268
RA_OF_ASC_NODE = 332.4684
ARG_OF_PERICENTER = 167.7349
MEAN_ANOMALY   = 192.5767

EPHEMERIS_TYPE = 0
CLASSIFICATION_TYPE = U
NORAD_CAT_ID   = 16496
ELEMENT_SET_NO = 999
REV_AT_EPOCH   = 13772
BSTAR          = .56571155E-4
MEAN_MOTION_DOT = .558E-5
MEAN_MOTION_DDOT = 0

CCSDS_OMM_VERS = 2.0
CREATION_DATE  = 
ORIGINATOR     = 

OBJECT_NAME    = COSMOS 1743
OBJECT_ID      = 1986-034A
CENTER_NAME    = EARTH
REF_FRAME      = TEME
TIME_SYSTEM    = UTC
MEAN_ELEMENT_THEORY = SGP/SGP4

EPOCH          = 2025-12-22T20:07:47.980128
MEAN_MOTION    = 15.52697265
ECCENTRICITY   = .0004923
INCLINATION    = 82.5349
RA_OF_ASC_NODE = 154.0975
ARG_OF_PERICENTER = 210.5651
MEAN_ANOMALY   = 149.5315

EPHEMERIS_TYPE = 0
CLASSIFICATION_TYPE = U
NORAD_CAT_ID   = 16719
ELEMENT_SET_NO = 999
REV_AT_EPOCH   = 16830
BSTAR          = .51304E-3
MEAN_MOTION_DOT = .31758E-3
MEAN_MOTION_DDOT = 0

CCSDS_OMM_VERS = 2.0
CREATION_DATE  = 
ORIGINATOR     = 

OBJECT_NAME    = SL-14 R/B
OBJECT_ID      = 1986-046B
CENTER_NAME    = EARTH
REF_FRAME      = TEME
TIME_SYSTEM    = UTC
MEAN_ELEMENT_THEORY = SGP/SGP4

EPOCH          = 2025-12-22T19:38:37.351968
MEAN_MOTION    = 14.85494980
ECCENTRICITY   = .0024426
INCLINATION    = 82.4815
RA_OF_ASC_NODE = 152.7955
ARG_OF_PERICENTER = 120.3484
MEAN_ANOMALY   = 240.0152

EPHEMERIS_TYPE = 0
CLASSIFICATION_TYPE = U
NORAD_CAT_ID   = 16792
ELEMENT_SET_NO = 999
REV_AT_EPOCH   = 11499
BSTAR          = .52497E-4
MEAN_MOTION_DOT = .48E-5
MEAN_MOTION_DDOT = 0

CCSDS_OMM_VERS = 2.0
CREATION_DATE  = 
ORIGINATOR     = 

OBJECT_NAME    = SL-14 R/B
OBJECT_ID      = 1986-055B
CENTER_NAME    = EARTH
REF_FRAME      = TEME
TIME_SYSTEM    = UTC
MEAN_ELEMENT_THEORY = SGP/SGP4

EPOCH          = 2025-12-22T19:22:00.417792
MEAN_MOTION    = 14.85539840
ECCENTRICITY   = .0017849
INCLINATION    = 82.5197
RA_OF_ASC_NODE = 198.9130
ARG_OF_PERICENTER = 223.4842
MEAN_ANOMALY   = 147.3035

EPHEMERIS_TYPE = 0
CLASSIFICATION_TYPE = U
NORAD_CAT_ID   = 16882
ELEMENT_SET_NO = 999
REV_AT_EPOCH   = 10795
BSTAR          = .44809E-4
MEAN_MOTION_DOT = .412E-5
MEAN_MOTION_DDOT = 0

CCSDS_OMM_VERS = 2.0
CREATION_DATE  = 
ORIGINATOR     = 

OBJECT_NAME    = AJISAI (EGS)
OBJECT_ID      = 1986-061A
CENTER_NAME    = EARTH
REF_FRAME      = TEME
TIME_SYSTEM    = UTC
MEAN_ELEMENT_THEORY = SGP/SGP4

EPOCH          = 2025-12-22T20:21:54.683712
MEAN_MOTION    = 12.44514399
ECCENTRICITY   = .001131
INCLINATION    = 50.0113
RA_OF_ASC_NODE = 329.6335
ARG_OF_PERICENTER = 91.2905
MEAN_ANOMALY   = 278.9746

EPHEMERIS_TYPE = 0
CLASSIFICATION_TYPE = U
NORAD_CAT_ID   = 16908
ELEMENT_SET_NO = 999
REV_AT_EPOCH   = 45843
BSTAR          = .52506E-4
MEAN_MOTION_DOT = -.9E-6
MEAN_MOTION_DDOT = 0

CCSDS_OMM_VERS = 2.0
CREATION_DATE  = 
ORIGINATOR     = 

OBJECT_NAME    = COSMOS 1812
OBJECT_ID      = 1987-003A
CENTER_NAME    = EARTH
REF_FRAME      = TEME
TIME_SYSTEM    = UTC
MEAN_ELEMENT_THEORY = SGP/SGP4

EPOCH          = 2025-12-22T19:44:50.950752
MEAN_MOTION    = 15.77502270
ECCENTRICITY   = .0006559
INCLINATION    = 82.4878
RA_OF_ASC_NODE = 281.0855
ARG_OF_PERICENTER = 71.2388
MEAN_ANOMALY   = 288.9589

EPHEMERIS_TYPE = 0
CLASSIFICATION_TYPE = U
NORAD_CAT_ID   = 17295
ELEMENT_SET_NO = 999
REV_AT_EPOCH   = 13224
BSTAR          = .65615E-3
MEAN_MOTION_DOT = .109794E-2
MEAN_MOTION_DDOT = 0

CCSDS_OMM_VERS = 2.0
CREATION_DATE  = 
ORIGINATOR     = 

OBJECT_NAME    = SL-14 R/B
OBJECT_ID      = 1987-024B
CENTER_NAME    = EARTH
REF_FRAME      = TEME
TIME_SYSTEM    = UTC
MEAN_ELEMENT_THEORY = SGP/SGP4

EPOCH          = 2025-12-22T13:02:03.571296
MEAN_MOTION    = 14.86033399
ECCENTRICITY   = .00189385
INCLINATION    = 82.5276
RA_OF_ASC_NODE = 165.2449
ARG_OF_PERICENTER = 152.1591
MEAN_ANOMALY   = 208.0644

EPHEMERIS_TYPE = 0
CLASSIFICATION_TYPE = U
NORAD_CAT_ID   = 17567
ELEMENT_SET_NO = 999
REV_AT_EPOCH   = 7667
BSTAR          = .52248074E-4
MEAN_MOTION_DOT = .483E-5
MEAN_MOTION_DDOT = 0

CCSDS_OMM_VERS = 2.0
CREATION_DATE  = 
ORIGINATOR     = 

OBJECT_NAME    = COSMOS 1833
OBJECT_ID      = 1987-027A
CENTER_NAME    = EARTH
REF_FRAME      = TEME
TIME_SYSTEM    = UTC
MEAN_ELEMENT_THEORY = SGP/SGP4

EPOCH          = 2025-12-22T11:41:12.005664
MEAN_MOTION    = 14.13026380
ECCENTRICITY   = .00229373
INCLINATION    = 70.9155
RA_OF_ASC_NODE = 128.2868
ARG_OF_PERICENTER = 318.0987
MEAN_ANOMALY   = 41.8377

EPHEMERIS_TYPE = 0
CLASSIFICATION_TYPE = U
NORAD_CAT_ID   = 17589
ELEMENT_SET_NO = 999
REV_AT_EPOCH   = 99940
BSTAR          = .15196364E-3
MEAN_MOTION_DOT = .236E-5
MEAN_MOTION_DDOT = 0

CCSDS_OMM_VERS = 2.0
CREATION_DATE  = 
ORIGINATOR     = 

OBJECT_NAME    = SL-16 R/B
OBJECT_ID      = 1987-027B
CENTER_NAME    = EARTH
REF_FRAME      = TEME
TIME_SYSTEM    = UTC
MEAN_ELEMENT_THEORY = SGP/SGP4

EPOCH          = 2025-12-22T11:20:33.797760
MEAN_MOTION    = 14.17156135
ECCENTRICITY   = .00072321
INCLINATION    = 71.0038
RA_OF_ASC_NODE = 79.2099
ARG_OF_PERICENTER = 249.4479
MEAN_ANOMALY   = 110.5869

EPHEMERIS_TYPE = 0
CLASSIFICATION_TYPE = U
NORAD_CAT_ID   = 17590
ELEMENT_SET_NO = 999
REV_AT_EPOCH   = 440
BSTAR          = .80462758E-4
MEAN_MOTION_DOT = .114E-5
MEAN_MOTION_DDOT = 0

CCSDS_OMM_VERS = 2.0
CREATION_DATE  = 
ORIGINATOR     = 

OBJECT_NAME    = SL-14 R/B
OBJECT_ID      = 1987-038B
CENTER_NAME    = EARTH
REF_FRAME      = TEME
TIME_SYSTEM    = UTC
MEAN_ELEMENT_THEORY = SGP/SGP4

EPOCH          = 2025-12-22T11:57:41.013504
MEAN_MOTION    = 14.85269768
ECCENTRICITY   = .00207101
INCLINATION    = 82.5010
RA_OF_ASC_NODE = 9.5087
ARG_OF_PERICENTER = 62.0820
MEAN_ANOMALY   = 298.2489

EPHEMERIS_TYPE = 0
CLASSIFICATION_TYPE = U
NORAD_CAT_ID   = 17912
ELEMENT_SET_NO = 999
REV_AT_EPOCH   = 6777
BSTAR          = .49251086E-4
MEAN_MOTION_DOT = .449E-5
MEAN_MOTION_DDOT = 0

CCSDS_OMM_VERS = 2.0
CREATION_DATE  = 
ORIGINATOR     = 

OBJECT_NAME    = COSMOS 1844
OBJECT_ID      = 1987-041A
CENTER_NAME    = EARTH
REF_FRAME      = TEME
TIME_SYSTEM    = UTC
MEAN_ELEMENT_THEORY = SGP/SGP4

EPOCH          = 2025-12-22T19:34:45.666048
MEAN_MOTION    = 14.14529666
ECCENTRICITY   = .0029709
INCLINATION    = 70.8965
RA_OF_ASC_NODE = 196.3188
ARG_OF_PERICENTER = 141.1548
MEAN_ANOMALY   = 219.1717

EPHEMERIS_TYPE = 0
CLASSIFICATION_TYPE = U
NORAD_CAT_ID   = 17973
ELEMENT_SET_NO = 999
REV_AT_EPOCH   = 99271
BSTAR          = .17795E-3
MEAN_MOTION_DOT = .295E-5
MEAN_MOTION_DDOT = 0

